FLOCK 4G-13             
1 62621U 25009N   26068.70638971  .00053076  00000+0  16695-2 0  9995
2 62621  97.4019 151.0918 0003801 292.7207  67.3633 15.32770015 63700
STARLINK-33845          
1 63495U 25071C   26068.50389270  .00022854  00000+0  78173-3 0  9997
2 63495  53.1585 140.6330 0001268  85.2768 274.8377 15.30185595 52722
